{"type":"FeatureCollection","crs":{"type":"name","properties":{"name":"EPSG:4326"}},"features":[{"type":"Feature","id":1,"geometry":{"type":"LineString","coordinates":[[-112.098860402387,41.1343162762554],[-112.097119995576,41.1336687628341],[-112.095385647901,41.132308674868],[-112.094512585158,41.1306000762791],[-112.09454501434,41.1287356401118],[-112.093665419946,41.1300905434038],[-112.091957544725,41.131353266625],[-112.089580419227,41.1320595533876],[-112.087142599056,41.1319890265447],[-112.088958051126,41.1326644771576],[-112.090613918385,41.1339630140377],[-112.091514605221,41.1357255822658],[-112.091482370974,41.1375786032693],[-112.092544043096,41.1359434168793],[-112.094296539434,41.1349032641191],[-112.096758040093,41.1342554560883],[-112.098860402387,41.1343162762554]]},"properties":{"OBJECTID":1,"title":"Line"}},{"type":"Feature","id":2,"geometry":{"type":"LineString","coordinates":[[-112.094564456578,41.1314806831162],[-112.09309314011,41.1311487785905],[-112.09158242533,41.1315271833246],[-112.090656806651,41.1324594641066],[-112.090595842484,41.1336845382135],[-112.090756851126,41.1339898644011],[-112.091832792088,41.1348536053305],[-112.093384328111,41.135075952218],[-112.094875836011,41.134625545997],[-112.095682500679,41.1336009089027],[-112.095558257387,41.1324467987766],[-112.094564456578,41.1314806831162]]},"properties":{"OBJECTID":2,"title":"Line"}},{"type":"Feature","id":3,"geometry":{"type":"LineString","coordinates":[[-112.072821583135,41.1303805743122],[-112.072720548717,41.1233088867969],[-112.067612088411,41.1293744472475],[-112.067375023007,41.1222937079271],[-112.062536930449,41.1283918844763]]},"properties":{"OBJECTID":3,"title":"Line"}},{"type":"Feature","id":4,"geometry":{"type":"LineString","coordinates":[[-112.059663145295,41.1278354161969],[-112.061477619998,41.1225786736524],[-112.06148970683,41.1222901626555],[-112.060946010488,41.1212739894926],[-112.060438393182,41.1209593445502],[-112.058513920671,41.120535480734],[-112.057912290179,41.1204798552018],[-112.057025650298,41.120582297286],[-112.057003550844,41.1205888804697],[-112.056992964198,41.1205881847961],[-112.056393953194,41.1208782996631],[-112.056059849078,41.1211010999453],[-112.055705474479,41.1215723870286],[-112.054006462934,41.126718957664]]},"properties":{"OBJECTID":4,"title":"Line"}},{"type":"Feature","id":5,"geometry":{"type":"LineString","coordinates":[[-112.051083020708,41.126209098268],[-112.053340037859,41.1195722573286],[-112.050005139385,41.1189236367459]]},"properties":{"OBJECTID":5,"title":"Line"}},{"type":"Feature","id":6,"geometry":{"type":"LineString","coordinates":[[-112.033860720405,41.1228166716345],[-112.038054674192,41.1236307631301],[-112.040308408899,41.1169917956018],[-112.036060680163,41.1161671825646]]},"properties":{"OBJECTID":6,"title":"Line"}},{"type":"Feature","id":7,"geometry":{"type":"LineString","coordinates":[[-112.039167140653,41.1202817391917],[-112.039089408534,41.1202766285384],[-112.035136673061,41.119493105591]]},"properties":{"OBJECTID":7,"title":"Line"}},{"type":"Feature","id":8,"geometry":{"type":"LineString","coordinates":[[-112.040702913039,41.1241653315399],[-112.044851674381,41.124946935131],[-112.047124733647,41.1183405237732]]},"properties":{"OBJECTID":8,"title":"Line"}},{"type":"Feature","id":9,"geometry":{"type":"LineString","coordinates":[[-112.046002068612,41.1216035159169],[-112.041978748017,41.1208174866638]]},"properties":{"OBJECTID":9,"title":"Line"}},{"type":"Feature","id":10,"geometry":{"type":"LineString","coordinates":[[-112.207181696476,41.046039173168],[-112.191653674494,41.0577164003998],[-112.191640107239,41.0578336285218]]},"properties":{"OBJECTID":10,"title":"Line"}},{"type":"Feature","id":11,"geometry":{"type":"LineString","coordinates":[[-112.176241669033,41.0697383596929],[-112.16071364795,41.0814113806045],[-112.160700080695,41.0815285658102]]},"properties":{"OBJECTID":11,"title":"Line"}},{"type":"Feature","id":12,"geometry":{"type":"LineString","coordinates":[[-112.145173315456,41.0931844620971],[-112.129645294373,41.1048533189731],[-112.129631727117,41.1049704623712]]},"properties":{"OBJECTID":12,"title":"Line"}},{"type":"Feature","id":13,"geometry":{"type":"LineString","coordinates":[[-112.22365179517,41.0272940727981],[-112.224178655288,41.0215858469716],[-112.224301181899,41.0212814601136],[-112.224662946939,41.0209840445542],[-112.22510801006,41.0207290997904],[-112.22543019982,41.0206374694346],[-112.225838260436,41.0206103009489],[-112.226577228962,41.0206497489954],[-112.226983147994,41.0207298398976],[-112.227584385922,41.02114043615],[-112.227591815888,41.0211621031251],[-112.227716264894,41.0213052572042]]},"properties":{"OBJECTID":13,"title":"Line"}},{"type":"Feature","id":14,"geometry":{"type":"LineString","coordinates":[[-112.220884659803,41.0238815924739],[-112.220865419687,41.0230599124467],[-112.220573380083,41.0217450477406],[-112.220232585315,41.0212986410283],[-112.219300428698,41.0205897927538],[-112.217883655239,41.0201224625371],[-112.217218296464,41.020004867661],[-112.215930804948,41.0200080572058],[-112.215062222103,41.0201379256326],[-112.214133930936,41.0205379247966],[-112.213711688617,41.0208843215134],[-112.213065189073,41.0215348649346],[-112.212356751589,41.0227072201845],[-112.212205859774,41.0240966338149],[-112.212731930272,41.02516287204],[-112.212962048105,41.0256292719229],[-112.213768574432,41.0262425398697],[-112.215612133889,41.0268179157882],[-112.215630917661,41.0268218823148],[-112.217186324525,41.0268180296403],[-112.218730696483,41.026383822631],[-112.219596613128,41.0258789950084],[-112.220312798582,41.0251583768009],[-112.220748677327,41.0244370933235],[-112.220884659803,41.0238815924739]]},"properties":{"OBJECTID":14,"title":"Line"}},{"type":"Feature","id":15,"geometry":{"type":"LineString","coordinates":[[-112.205010248347,41.0251277830078],[-112.205566427678,41.0257433401594],[-112.205633579441,41.025817661694],[-112.206579641081,41.0260046853615],[-112.20735875891,41.0259611370488],[-112.207378260436,41.0259607839671],[-112.207416561007,41.0259380091753],[-112.208371112624,41.0255821525399],[-112.208805369012,41.0251253086936],[-112.209039773606,41.0239065936133],[-112.209020272079,41.023906946706],[-112.208660979204,41.0233466911965],[-112.208420877494,41.0231596640466],[-112.20732704838,41.0226904225568],[-112.206238128559,41.0223232735323],[-112.206208175134,41.0223017336761],[-112.205467429741,41.0218926499283],[-112.205222865201,41.0215112834501],[-112.205224133623,41.0208105969337],[-112.205478196948,41.0202097654391],[-112.205955603012,41.0197074856473],[-112.207045897256,41.0193009850284],[-112.207856191117,41.0192097776473],[-112.207836924051,41.0192174872751],[-112.208241218031,41.0192974192878],[-112.208732193148,41.0194515497911],[-112.208751928236,41.0194585531575],[-112.208771429763,41.0194582000409],[-112.209197963334,41.0196786670987],[-112.209247184724,41.0196924975636],[-112.209276905485,41.0197066811409],[-112.209296874135,41.0197210416116],[-112.209529096721,41.0199671088883],[-112.209559284606,41.0199960059309],[-112.209589706952,41.0200322600576],[-112.209924771366,41.0204031251192]]},"properties":{"OBJECTID":15,"title":"Line"}},{"type":"Feature","id":16,"geometry":{"type":"LineString","coordinates":[[-112.200869454163,41.0254933569985],[-112.20171430801,41.0186832286024]]},"properties":{"OBJECTID":16,"title":"Line"}},{"type":"Feature","id":17,"geometry":{"type":"LineString","coordinates":[[-112.191552034611,41.0247145278712],[-112.195806417169,41.025042560416],[-112.196804469705,41.0182490601349]]},"properties":{"OBJECTID":17,"title":"Line"}},{"type":"Feature","id":18,"geometry":{"type":"LineString","coordinates":[[-112.196311530871,41.0216044598818],[-112.192180474425,41.0212585542536]]},"properties":{"OBJECTID":18,"title":"Line"}},{"type":"Feature","id":19,"geometry":{"type":"LineString","coordinates":[[-112.114375180506,41.1169940045541],[-112.098847159423,41.1286586301717],[-112.098833592168,41.1287757317707]]},"properties":{"OBJECTID":19,"title":"Line"}},{"type":"Feature","id":20,"geometry":{"type":"LineString","coordinates":[[-112.08782999081,41.1378891281851],[-112.072301968829,41.1495500400849],[-112.072288402471,41.1496671037141]]},"properties":{"OBJECTID":20,"title":"Line"}},{"type":"Feature","id":21,"geometry":{"type":"LineString","coordinates":[[-112.062116935714,41.1570041901096],[-112.046588914631,41.168661702011],[-112.046575347375,41.1687787321868]]},"properties":{"OBJECTID":21,"title":"Line"}},{"type":"Feature","id":22,"geometry":{"type":"LineString","coordinates":[[-112.392799437383,41.1254310859395],[-112.376269526162,41.1137477721811]]},"properties":{"OBJECTID":22,"title":"Line"}},{"type":"Feature","id":23,"geometry":{"type":"LineString","coordinates":[[-112.355198070631,41.0988514861132],[-112.336641878132,41.0857305467887]]},"properties":{"OBJECTID":23,"title":"Line"}},{"type":"Feature","id":24,"geometry":{"type":"LineString","coordinates":[[-112.32051804225,41.0743273797351],[-112.300753718103,41.0603468721715]]},"properties":{"OBJECTID":24,"title":"Line"}},{"type":"Feature","id":25,"geometry":{"type":"LineString","coordinates":[[-112.280331055514,41.0458975599639],[-112.256459887212,41.0290043600955]]},"properties":{"OBJECTID":25,"title":"Line"}},{"type":"Feature","id":26,"geometry":{"type":"LineString","coordinates":[[-112.432771535425,41.1508012224762],[-112.431036084619,41.1501463730011],[-112.429312112486,41.1487791656375],[-112.428452063637,41.1470672566395],[-112.428498677217,41.1452034589681],[-112.42760878813,41.1465542042142],[-112.425891335071,41.1478092196879],[-112.423508875377,41.1485050609466],[-112.421071631026,41.148424033173],[-112.42288191419,41.1491071374743],[-112.424527874828,41.150412472192],[-112.425415136342,41.1521784558806],[-112.425368803935,41.1540308422559],[-112.426442899757,41.1524006743663],[-112.428203281507,41.1513683610807],[-112.430669670798,41.1507313475556],[-112.432771535425,41.1508012224762]]},"properties":{"OBJECTID":26,"title":"Line"}},{"type":"Feature","id":27,"geometry":{"type":"LineString","coordinates":[[-112.428497234522,41.1479478514346],[-112.427028466575,41.1476096865143],[-112.425514898746,41.1479814713241],[-112.424582202241,41.1489095090276],[-112.424511918053,41.1501339931536],[-112.424670600957,41.1504399327142],[-112.425739952776,41.1513080850008],[-112.42728977122,41.1515370671157],[-112.428784681939,41.1510932167485],[-112.429599128711,41.1500723346869],[-112.429483669146,41.1489179969105],[-112.428497234522,41.1479478514346]]},"properties":{"OBJECTID":27,"title":"Line"}},{"type":"Feature","id":28,"geometry":{"type":"LineString","coordinates":[[-112.484408646402,41.1553200118459],[-112.482248319417,41.1618792473493],[-112.482211148927,41.1618620632568],[-112.47882784114,41.1612343832805],[-112.477981011898,41.1606848924948],[-112.477537261216,41.1600365721848],[-112.477455955598,41.1594710275958],[-112.477662811557,41.1588429716752],[-112.478077843099,41.158413581447],[-112.478862547551,41.1579786349816],[-112.479882007838,41.1578834482301],[-112.483352330934,41.1585273050681]]},"properties":{"OBJECTID":28,"title":"Line"}},{"type":"Feature","id":29,"geometry":{"type":"LineString","coordinates":[[-112.480895749449,41.1580715308359],[-112.478846795593,41.1541444179138]]},"properties":{"OBJECTID":29,"title":"Line"}},{"type":"Feature","id":30,"geometry":{"type":"LineString","coordinates":[[-112.473800417856,41.1602628043445],[-112.476008851422,41.1536262160883]]},"properties":{"OBJECTID":30,"title":"Line"}},{"type":"Feature","id":31,"geometry":{"type":"LineString","coordinates":[[-112.470186044514,41.1595675924174],[-112.466783302574,41.1589386135558],[-112.466081305112,41.1585755290127],[-112.464927216111,41.1572981810594],[-112.46458833206,41.1564208305272],[-112.464737749739,41.1557229839969],[-112.465251655252,41.1542455676337],[-112.465255046392,41.1542163034516],[-112.465257590421,41.154194356321],[-112.46559533451,41.1537300132962],[-112.466144299472,41.1533016616485],[-112.466145994592,41.1532870293483],[-112.467320739456,41.152612290285],[-112.467341019822,41.1526062514304],[-112.468303098423,41.1523303608155],[-112.469605965504,41.1524085983585],[-112.472412403063,41.15292740571],[-112.470186044514,41.1595675924174]]},"properties":{"OBJECTID":31,"title":"Line"}},{"type":"Feature","id":32,"geometry":{"type":"LineString","coordinates":[[-112.456849174309,41.1570519572864],[-112.456888041716,41.1570545105045],[-112.461011892775,41.1577972296289],[-112.463265518786,41.1511928492547],[-112.459012280682,41.1503635867927]]},"properties":{"OBJECTID":32,"title":"Line"}},{"type":"Feature","id":33,"geometry":{"type":"LineString","coordinates":[[-112.462143495149,41.1544810888347],[-112.458120500641,41.1536855911226]]},"properties":{"OBJECTID":33,"title":"Line"}},{"type":"Feature","id":34,"geometry":{"type":"LineString","coordinates":[[-112.456324201551,41.1498564998342],[-112.454104353093,41.1565074621626],[-112.448546041646,41.1483729708642],[-112.446334313958,41.1549997546563]]},"properties":{"OBJECTID":34,"title":"Line"}},{"type":"Feature","id":35,"geometry":{"type":"LineString","coordinates":[[-112.020588666343,41.1881490543347],[-112.000243732281,41.2036835779079]]},"properties":{"OBJECTID":35,"title":"Line"}},{"type":"Feature","id":36,"geometry":{"type":"LineString","coordinates":[[-112.015035420495,41.201251555018],[-112.014906134061,41.1868327621707]]},"properties":{"OBJECTID":36,"title":"Line"}},{"type":"Feature","id":37,"geometry":{"type":"LineString","coordinates":[[-112.237938477481,41.0228704046616],[-112.2224104555,41.0345517428019],[-112.222396888244,41.0346690121983]]},"properties":{"OBJECTID":37,"title":"Line"}},{"type":"Feature","id":38,"geometry":{"type":"LineString","coordinates":[[-112.248405308507,41.0198894122714],[-112.246575249831,41.0194010283394],[-112.24463904083,41.0182033276314],[-112.243503190324,41.0165819335009],[-112.24324192251,41.0147245325911],[-112.242581796422,41.0161509002466],[-112.241084727051,41.0175596687939],[-112.238835543209,41.0184748307792],[-112.236403815413,41.0186227507169],[-112.238312785697,41.0191321994245],[-112.240161379313,41.0202756876576],[-112.241333168719,41.0219482891271],[-112.241592864481,41.0237943120598],[-112.242389637799,41.0220728815885],[-112.243966035596,41.0208815135856],[-112.24630820046,41.0200169745107],[-112.248405308507,41.0198894122714]]},"properties":{"OBJECTID":38,"title":"Line"}},{"type":"Feature","id":39,"geometry":{"type":"LineString","coordinates":[[-112.243693308872,41.0174532060712],[-112.242180125522,41.0172546872079],[-112.240739629353,41.0177662137389],[-112.239967288415,41.0187763222799],[-112.240099594985,41.0200003151379],[-112.240307530718,41.0202896101723],[-112.241511848121,41.0210525014626],[-112.243087441925,41.0211348779249],[-112.244497529223,41.0205534576034],[-112.245137212351,41.019462122956],[-112.244832175921,41.0183252743517],[-112.243693308872,41.0174532060712]]},"properties":{"OBJECTID":39,"title":"Line"}},{"type":"Feature","id":40,"geometry":{"type":"LineString","coordinates":[[-111.972522453841,40.854406947521],[-111.967526485067,40.8543307077035]]},"properties":{"OBJECTID":40,"title":"Line"}},{"type":"Feature","id":41,"geometry":{"type":"LineString","coordinates":[[-111.969938098685,40.8543345568631],[-111.969925638154,40.8542762962583],[-111.97014762264,40.8475527993313]]},"properties":{"OBJECTID":41,"title":"Line"}},{"type":"Feature","id":42,"geometry":{"type":"LineString","coordinates":[[-112.233080843871,41.0131325412449],[-112.214516335668,41.0010900201481]]},"properties":{"OBJECTID":42,"title":"Line"}},{"type":"Feature","id":43,"geometry":{"type":"LineString","coordinates":[[-112.191220038842,40.9862671006432],[-112.191155865893,40.9861446246609],[-112.190672788764,40.9855806771072],[-112.166854474639,40.9701623998596]]},"properties":{"OBJECTID":43,"title":"Line"}},{"type":"Feature","id":44,"geometry":{"type":"LineString","coordinates":[[-112.135576902534,40.9499548828144],[-112.13440780448,40.9492270945957],[-112.10435630877,40.9295855734397]]},"properties":{"OBJECTID":44,"title":"Line"}},{"type":"Feature","id":45,"geometry":{"type":"LineString","coordinates":[[-112.08332794722,40.9159273390355],[-112.051281532216,40.8951072881644]]},"properties":{"OBJECTID":45,"title":"Line"}},{"type":"Feature","id":46,"geometry":{"type":"LineString","coordinates":[[-112.025232155962,40.8781785884334],[-111.998846392975,40.8610268669117]]},"properties":{"OBJECTID":46,"title":"Line"}},{"type":"Feature","id":47,"geometry":{"type":"LineString","coordinates":[[-112.421522577214,41.145346509514],[-112.408578587894,41.1362400184113]]},"properties":{"OBJECTID":47,"title":"Line"}},{"type":"Feature","id":48,"geometry":{"type":"LineString","coordinates":[[-111.97912861683,40.8545651105838],[-111.976501103913,40.8555143324278],[-111.973611990805,40.851497282348],[-111.976377931413,40.85035319824]]},"properties":{"OBJECTID":48,"title":"Line"}},{"type":"Feature","id":49,"geometry":{"type":"LineString","coordinates":[[-111.979194924176,40.846898474618],[-111.979214228971,40.8467632141731],[-111.979237857358,40.84665728521],[-111.979257162154,40.8465220249524],[-111.979259240855,40.846403065337],[-111.979346437625,40.8445990788232],[-111.985494669126,40.8448967322372],[-111.985320789423,40.8470138440225]]},"properties":{"OBJECTID":49,"title":"Line"}},{"type":"Feature","id":50,"geometry":{"type":"LineString","coordinates":[[-111.990287919582,40.8521088865395],[-111.986919057604,40.8560157091085],[-111.984311759475,40.8548402522753],[-111.987754003033,40.850848257266],[-111.99028843252,40.8521082919891]]},"properties":{"OBJECTID":50,"title":"Line"}},{"type":"Feature","id":51,"geometry":{"type":"LineString","coordinates":[[-111.984317146672,40.8548435095973],[-111.979134004027,40.8545683672399],[-111.976395575223,40.8503752230031],[-111.979292917797,40.8468642190209],[-111.985380742985,40.8470184839103],[-111.985341968104,40.8470217572462],[-111.985344132146,40.8470364216806],[-111.987754003033,40.850848257266]]},"properties":{"OBJECTID":51,"title":"Line"}},{"type":"Feature","id":52,"geometry":{"type":"LineString","coordinates":[[-111.959425616175,40.8539107803739],[-111.960036176819,40.8542527997138],[-111.960532646032,40.8543065201638],[-111.961968641642,40.8543529159584],[-111.962962482875,40.854293490769],[-111.96407896211,40.8538328324813],[-111.964721721069,40.8533278645699],[-111.965539910223,40.8520250141187],[-111.965768164052,40.8507046796437],[-111.965499932498,40.849804845665],[-111.965087246457,40.8490041636331],[-111.964463343136,40.8483962933087],[-111.963270744256,40.8477842736313],[-111.963210657743,40.8477737137272],[-111.963169993705,40.8477617750536],[-111.962242003474,40.8475459734237],[-111.962162495385,40.8475367888564],[-111.961555984346,40.8475171911219],[-111.960481292941,40.8475670566081],[-111.960440629801,40.8475551192564],[-111.959891907385,40.8477815439574]]},"properties":{"OBJECTID":52,"title":"Line"}},{"type":"Feature","id":53,"geometry":{"type":"LineString","coordinates":[[-111.957762382732,40.8542373378264],[-111.957704421633,40.8475156091686]]},"properties":{"OBJECTID":53,"title":"Line"}},{"type":"Feature","id":54,"geometry":{"type":"LineString","coordinates":[[-111.957686342139,40.8510552629265],[-111.957417479968,40.851091505923],[-111.957167821981,40.8511251606986],[-111.956815297911,40.851142706647],[-111.951679960011,40.851206332585]]},"properties":{"OBJECTID":54,"title":"Line"}},{"type":"Feature","id":55,"geometry":{"type":"LineString","coordinates":[[-111.951630705384,40.8475550030563],[-111.951603894266,40.8476935148019],[-111.951746280832,40.8542689621248]]},"properties":{"OBJECTID":55,"title":"Line"}},{"type":"Feature","id":56,"geometry":{"type":"LineString","coordinates":[[-112.098860402387,41.1343162762554],[-112.097119995576,41.1336687628341],[-112.095385647901,41.132308674868],[-112.094512585158,41.1306000762791],[-112.09454501434,41.1287356401118],[-112.093665419946,41.1300905434038],[-112.091957544725,41.131353266625],[-112.089580419227,41.1320595533876],[-112.087142599056,41.1319890265447],[-112.088958051126,41.1326644771576],[-112.090613918385,41.1339630140377],[-112.091514605221,41.1357255822658],[-112.091482370974,41.1375786032693],[-112.092544043096,41.1359434168793],[-112.094296539434,41.1349032641191],[-112.096758040093,41.1342554560883],[-112.098860402387,41.1343162762554]]},"properties":{"OBJECTID":56,"title":"Line"}},{"type":"Feature","id":57,"geometry":{"type":"LineString","coordinates":[[-112.094564456578,41.1314806831162],[-112.09309314011,41.1311487785905],[-112.09158242533,41.1315271833246],[-112.090656806651,41.1324594641066],[-112.090595842484,41.1336845382135],[-112.090756851126,41.1339898644011],[-112.091832792088,41.1348536053305],[-112.093384328111,41.135075952218],[-112.094875836011,41.134625545997],[-112.095682500679,41.1336009089027],[-112.095558257387,41.1324467987766],[-112.094564456578,41.1314806831162]]},"properties":{"OBJECTID":57,"title":"Line"}},{"type":"Feature","id":58,"geometry":{"type":"LineString","coordinates":[[-112.072821583135,41.1303805743122],[-112.072720548717,41.1233088867969],[-112.067612088411,41.1293744472475],[-112.067375023007,41.1222937079271],[-112.062536930449,41.1283918844763]]},"properties":{"OBJECTID":58,"title":"Line"}},{"type":"Feature","id":59,"geometry":{"type":"LineString","coordinates":[[-112.059663145295,41.1278354161969],[-112.061477619998,41.1225786736524],[-112.06148970683,41.1222901626555],[-112.060946010488,41.1212739894926],[-112.060438393182,41.1209593445502],[-112.058513920671,41.120535480734],[-112.057912290179,41.1204798552018],[-112.057025650298,41.120582297286],[-112.057003550844,41.1205888804697],[-112.056992964198,41.1205881847961],[-112.056393953194,41.1208782996631],[-112.056059849078,41.1211010999453],[-112.055705474479,41.1215723870286],[-112.054006462934,41.126718957664]]},"properties":{"OBJECTID":59,"title":"Line"}},{"type":"Feature","id":60,"geometry":{"type":"LineString","coordinates":[[-112.051083020708,41.126209098268],[-112.053340037859,41.1195722573286],[-112.050005139385,41.1189236367459]]},"properties":{"OBJECTID":60,"title":"Line"}},{"type":"Feature","id":61,"geometry":{"type":"LineString","coordinates":[[-112.033860720405,41.1228166716345],[-112.038054674192,41.1236307631301],[-112.040308408899,41.1169917956018],[-112.036060680163,41.1161671825646]]},"properties":{"OBJECTID":61,"title":"Line"}},{"type":"Feature","id":62,"geometry":{"type":"LineString","coordinates":[[-112.039167140653,41.1202817391917],[-112.039089408534,41.1202766285384],[-112.035136673061,41.119493105591]]},"properties":{"OBJECTID":62,"title":"Line"}},{"type":"Feature","id":63,"geometry":{"type":"LineString","coordinates":[[-112.040702913039,41.1241653315399],[-112.044851674381,41.124946935131],[-112.047124733647,41.1183405237732]]},"properties":{"OBJECTID":63,"title":"Line"}},{"type":"Feature","id":64,"geometry":{"type":"LineString","coordinates":[[-112.046002068612,41.1216035159169],[-112.041978748017,41.1208174866638]]},"properties":{"OBJECTID":64,"title":"Line"}},{"type":"Feature","id":65,"geometry":{"type":"LineString","coordinates":[[-112.207181696476,41.046039173168],[-112.191653674494,41.0577164003998],[-112.191640107239,41.0578336285218]]},"properties":{"OBJECTID":65,"title":"Line"}},{"type":"Feature","id":66,"geometry":{"type":"LineString","coordinates":[[-112.176241669033,41.0697383596929],[-112.16071364795,41.0814113806045],[-112.160700080695,41.0815285658102]]},"properties":{"OBJECTID":66,"title":"Line"}},{"type":"Feature","id":67,"geometry":{"type":"LineString","coordinates":[[-112.145173315456,41.0931844620971],[-112.129645294373,41.1048533189731],[-112.129631727117,41.1049704623712]]},"properties":{"OBJECTID":67,"title":"Line"}},{"type":"Feature","id":68,"geometry":{"type":"LineString","coordinates":[[-112.22365179517,41.0272940727981],[-112.224178655288,41.0215858469716],[-112.224301181899,41.0212814601136],[-112.224662946939,41.0209840445542],[-112.22510801006,41.0207290997904],[-112.22543019982,41.0206374694346],[-112.225838260436,41.0206103009489],[-112.226577228962,41.0206497489954],[-112.226983147994,41.0207298398976],[-112.227584385922,41.02114043615],[-112.227591815888,41.0211621031251],[-112.227716264894,41.0213052572042]]},"properties":{"OBJECTID":68,"title":"Line"}},{"type":"Feature","id":69,"geometry":{"type":"LineString","coordinates":[[-112.220884659803,41.0238815924739],[-112.220865419687,41.0230599124467],[-112.220573380083,41.0217450477406],[-112.220232585315,41.0212986410283],[-112.219300428698,41.0205897927538],[-112.217883655239,41.0201224625371],[-112.217218296464,41.020004867661],[-112.215930804948,41.0200080572058],[-112.215062222103,41.0201379256326],[-112.214133930936,41.0205379247966],[-112.213711688617,41.0208843215134],[-112.213065189073,41.0215348649346],[-112.212356751589,41.0227072201845],[-112.212205859774,41.0240966338149],[-112.212731930272,41.02516287204],[-112.212962048105,41.0256292719229],[-112.213768574432,41.0262425398697],[-112.215612133889,41.0268179157882],[-112.215630917661,41.0268218823148],[-112.217186324525,41.0268180296403],[-112.218730696483,41.026383822631],[-112.219596613128,41.0258789950084],[-112.220312798582,41.0251583768009],[-112.220748677327,41.0244370933235],[-112.220884659803,41.0238815924739]]},"properties":{"OBJECTID":69,"title":"Line"}},{"type":"Feature","id":70,"geometry":{"type":"LineString","coordinates":[[-112.205010248347,41.0251277830078],[-112.205566427678,41.0257433401594],[-112.205633579441,41.025817661694],[-112.206579641081,41.0260046853615],[-112.20735875891,41.0259611370488],[-112.207378260436,41.0259607839671],[-112.207416561007,41.0259380091753],[-112.208371112624,41.0255821525399],[-112.208805369012,41.0251253086936],[-112.209039773606,41.0239065936133],[-112.209020272079,41.023906946706],[-112.208660979204,41.0233466911965],[-112.208420877494,41.0231596640466],[-112.20732704838,41.0226904225568],[-112.206238128559,41.0223232735323],[-112.206208175134,41.0223017336761],[-112.205467429741,41.0218926499283],[-112.205222865201,41.0215112834501],[-112.205224133623,41.0208105969337],[-112.205478196948,41.0202097654391],[-112.205955603012,41.0197074856473],[-112.207045897256,41.0193009850284],[-112.207856191117,41.0192097776473],[-112.207836924051,41.0192174872751],[-112.208241218031,41.0192974192878],[-112.208732193148,41.0194515497911],[-112.208751928236,41.0194585531575],[-112.208771429763,41.0194582000409],[-112.209197963334,41.0196786670987],[-112.209247184724,41.0196924975636],[-112.209276905485,41.0197066811409],[-112.209296874135,41.0197210416116],[-112.209529096721,41.0199671088883],[-112.209559284606,41.0199960059309],[-112.209589706952,41.0200322600576],[-112.209924771366,41.0204031251192]]},"properties":{"OBJECTID":70,"title":"Line"}},{"type":"Feature","id":71,"geometry":{"type":"LineString","coordinates":[[-112.200869454163,41.0254933569985],[-112.20171430801,41.0186832286024]]},"properties":{"OBJECTID":71,"title":"Line"}},{"type":"Feature","id":72,"geometry":{"type":"LineString","coordinates":[[-112.191552034611,41.0247145278712],[-112.195806417169,41.025042560416],[-112.196804469705,41.0182490601349]]},"properties":{"OBJECTID":72,"title":"Line"}},{"type":"Feature","id":73,"geometry":{"type":"LineString","coordinates":[[-112.196311530871,41.0216044598818],[-112.192180474425,41.0212585542536]]},"properties":{"OBJECTID":73,"title":"Line"}},{"type":"Feature","id":74,"geometry":{"type":"LineString","coordinates":[[-112.114375180506,41.1169940045541],[-112.098847159423,41.1286586301717],[-112.098833592168,41.1287757317707]]},"properties":{"OBJECTID":74,"title":"Line"}},{"type":"Feature","id":75,"geometry":{"type":"LineString","coordinates":[[-112.08782999081,41.1378891281851],[-112.072301968829,41.1495500400849],[-112.072288402471,41.1496671037141]]},"properties":{"OBJECTID":75,"title":"Line"}},{"type":"Feature","id":76,"geometry":{"type":"LineString","coordinates":[[-112.062116935714,41.1570041901096],[-112.046588914631,41.168661702011],[-112.046575347375,41.1687787321868]]},"properties":{"OBJECTID":76,"title":"Line"}},{"type":"Feature","id":77,"geometry":{"type":"LineString","coordinates":[[-112.392799437383,41.1254310859395],[-112.376269526162,41.1137477721811]]},"properties":{"OBJECTID":77,"title":"Line"}},{"type":"Feature","id":78,"geometry":{"type":"LineString","coordinates":[[-112.355198070631,41.0988514861132],[-112.336641878132,41.0857305467887]]},"properties":{"OBJECTID":78,"title":"Line"}},{"type":"Feature","id":79,"geometry":{"type":"LineString","coordinates":[[-112.32051804225,41.0743273797351],[-112.300753718103,41.0603468721715]]},"properties":{"OBJECTID":79,"title":"Line"}},{"type":"Feature","id":80,"geometry":{"type":"LineString","coordinates":[[-112.280331055514,41.0458975599639],[-112.256459887212,41.0290043600955]]},"properties":{"OBJECTID":80,"title":"Line"}},{"type":"Feature","id":81,"geometry":{"type":"LineString","coordinates":[[-112.432771535425,41.1508012224762],[-112.431036084619,41.1501463730011],[-112.429312112486,41.1487791656375],[-112.428452063637,41.1470672566395],[-112.428498677217,41.1452034589681],[-112.42760878813,41.1465542042142],[-112.425891335071,41.1478092196879],[-112.423508875377,41.1485050609466],[-112.421071631026,41.148424033173],[-112.42288191419,41.1491071374743],[-112.424527874828,41.150412472192],[-112.425415136342,41.1521784558806],[-112.425368803935,41.1540308422559],[-112.426442899757,41.1524006743663],[-112.428203281507,41.1513683610807],[-112.430669670798,41.1507313475556],[-112.432771535425,41.1508012224762]]},"properties":{"OBJECTID":81,"title":"Line"}},{"type":"Feature","id":82,"geometry":{"type":"LineString","coordinates":[[-112.428497234522,41.1479478514346],[-112.427028466575,41.1476096865143],[-112.425514898746,41.1479814713241],[-112.424582202241,41.1489095090276],[-112.424511918053,41.1501339931536],[-112.424670600957,41.1504399327142],[-112.425739952776,41.1513080850008],[-112.42728977122,41.1515370671157],[-112.428784681939,41.1510932167485],[-112.429599128711,41.1500723346869],[-112.429483669146,41.1489179969105],[-112.428497234522,41.1479478514346]]},"properties":{"OBJECTID":82,"title":"Line"}},{"type":"Feature","id":83,"geometry":{"type":"LineString","coordinates":[[-112.484408646402,41.1553200118459],[-112.482248319417,41.1618792473493],[-112.482211148927,41.1618620632568],[-112.47882784114,41.1612343832805],[-112.477981011898,41.1606848924948],[-112.477537261216,41.1600365721848],[-112.477455955598,41.1594710275958],[-112.477662811557,41.1588429716752],[-112.478077843099,41.158413581447],[-112.478862547551,41.1579786349816],[-112.479882007838,41.1578834482301],[-112.483352330934,41.1585273050681]]},"properties":{"OBJECTID":83,"title":"Line"}},{"type":"Feature","id":84,"geometry":{"type":"LineString","coordinates":[[-112.480895749449,41.1580715308359],[-112.478846795593,41.1541444179138]]},"properties":{"OBJECTID":84,"title":"Line"}},{"type":"Feature","id":85,"geometry":{"type":"LineString","coordinates":[[-112.473800417856,41.1602628043445],[-112.476008851422,41.1536262160883]]},"properties":{"OBJECTID":85,"title":"Line"}},{"type":"Feature","id":86,"geometry":{"type":"LineString","coordinates":[[-112.470186044514,41.1595675924174],[-112.466783302574,41.1589386135558],[-112.466081305112,41.1585755290127],[-112.464927216111,41.1572981810594],[-112.46458833206,41.1564208305272],[-112.464737749739,41.1557229839969],[-112.465251655252,41.1542455676337],[-112.465255046392,41.1542163034516],[-112.465257590421,41.154194356321],[-112.46559533451,41.1537300132962],[-112.466144299472,41.1533016616485],[-112.466145994592,41.1532870293483],[-112.467320739456,41.152612290285],[-112.467341019822,41.1526062514304],[-112.468303098423,41.1523303608155],[-112.469605965504,41.1524085983585],[-112.472412403063,41.15292740571],[-112.470186044514,41.1595675924174]]},"properties":{"OBJECTID":86,"title":"Line"}},{"type":"Feature","id":87,"geometry":{"type":"LineString","coordinates":[[-112.456849174309,41.1570519572864],[-112.456888041716,41.1570545105045],[-112.461011892775,41.1577972296289],[-112.463265518786,41.1511928492547],[-112.459012280682,41.1503635867927]]},"properties":{"OBJECTID":87,"title":"Line"}},{"type":"Feature","id":88,"geometry":{"type":"LineString","coordinates":[[-112.462143495149,41.1544810888347],[-112.458120500641,41.1536855911226]]},"properties":{"OBJECTID":88,"title":"Line"}},{"type":"Feature","id":89,"geometry":{"type":"LineString","coordinates":[[-112.456324201551,41.1498564998342],[-112.454104353093,41.1565074621626],[-112.448546041646,41.1483729708642],[-112.446334313958,41.1549997546563]]},"properties":{"OBJECTID":89,"title":"Line"}},{"type":"Feature","id":90,"geometry":{"type":"LineString","coordinates":[[-112.020588666343,41.1881490543347],[-112.000243732281,41.2036835779079]]},"properties":{"OBJECTID":90,"title":"Line"}},{"type":"Feature","id":91,"geometry":{"type":"LineString","coordinates":[[-112.015035420495,41.201251555018],[-112.014906134061,41.1868327621707]]},"properties":{"OBJECTID":91,"title":"Line"}},{"type":"Feature","id":92,"geometry":{"type":"LineString","coordinates":[[-112.237938477481,41.0228704046616],[-112.2224104555,41.0345517428019],[-112.222396888244,41.0346690121983]]},"properties":{"OBJECTID":92,"title":"Line"}},{"type":"Feature","id":93,"geometry":{"type":"LineString","coordinates":[[-112.248405308507,41.0198894122714],[-112.246575249831,41.0194010283394],[-112.24463904083,41.0182033276314],[-112.243503190324,41.0165819335009],[-112.24324192251,41.0147245325911],[-112.242581796422,41.0161509002466],[-112.241084727051,41.0175596687939],[-112.238835543209,41.0184748307792],[-112.236403815413,41.0186227507169],[-112.238312785697,41.0191321994245],[-112.240161379313,41.0202756876576],[-112.241333168719,41.0219482891271],[-112.241592864481,41.0237943120598],[-112.242389637799,41.0220728815885],[-112.243966035596,41.0208815135856],[-112.24630820046,41.0200169745107],[-112.248405308507,41.0198894122714]]},"properties":{"OBJECTID":93,"title":"Line"}},{"type":"Feature","id":94,"geometry":{"type":"LineString","coordinates":[[-112.243693308872,41.0174532060712],[-112.242180125522,41.0172546872079],[-112.240739629353,41.0177662137389],[-112.239967288415,41.0187763222799],[-112.240099594985,41.0200003151379],[-112.240307530718,41.0202896101723],[-112.241511848121,41.0210525014626],[-112.243087441925,41.0211348779249],[-112.244497529223,41.0205534576034],[-112.245137212351,41.019462122956],[-112.244832175921,41.0183252743517],[-112.243693308872,41.0174532060712]]},"properties":{"OBJECTID":94,"title":"Line"}},{"type":"Feature","id":95,"geometry":{"type":"LineString","coordinates":[[-111.972522453841,40.854406947521],[-111.967526485067,40.8543307077035]]},"properties":{"OBJECTID":95,"title":"Line"}},{"type":"Feature","id":96,"geometry":{"type":"LineString","coordinates":[[-111.969938098685,40.8543345568631],[-111.969925638154,40.8542762962583],[-111.97014762264,40.8475527993313]]},"properties":{"OBJECTID":96,"title":"Line"}},{"type":"Feature","id":97,"geometry":{"type":"LineString","coordinates":[[-112.233080843871,41.0131325412449],[-112.214516335668,41.0010900201481]]},"properties":{"OBJECTID":97,"title":"Line"}},{"type":"Feature","id":98,"geometry":{"type":"LineString","coordinates":[[-112.191220038842,40.9862671006432],[-112.191155865893,40.9861446246609],[-112.190672788764,40.9855806771072],[-112.166854474639,40.9701623998596]]},"properties":{"OBJECTID":98,"title":"Line"}},{"type":"Feature","id":99,"geometry":{"type":"LineString","coordinates":[[-112.135576902534,40.9499548828144],[-112.13440780448,40.9492270945957],[-112.10435630877,40.9295855734397]]},"properties":{"OBJECTID":99,"title":"Line"}},{"type":"Feature","id":100,"geometry":{"type":"LineString","coordinates":[[-112.08332794722,40.9159273390355],[-112.051281532216,40.8951072881644]]},"properties":{"OBJECTID":100,"title":"Line"}},{"type":"Feature","id":101,"geometry":{"type":"LineString","coordinates":[[-112.025232155962,40.8781785884334],[-111.998846392975,40.8610268669117]]},"properties":{"OBJECTID":101,"title":"Line"}},{"type":"Feature","id":102,"geometry":{"type":"LineString","coordinates":[[-112.421522577214,41.145346509514],[-112.408578587894,41.1362400184113]]},"properties":{"OBJECTID":102,"title":"Line"}},{"type":"Feature","id":103,"geometry":{"type":"LineString","coordinates":[[-111.97912861683,40.8545651105838],[-111.976501103913,40.8555143324278],[-111.973611990805,40.851497282348],[-111.976377931413,40.85035319824]]},"properties":{"OBJECTID":103,"title":"Line"}},{"type":"Feature","id":104,"geometry":{"type":"LineString","coordinates":[[-111.979194924176,40.846898474618],[-111.979214228971,40.8467632141731],[-111.979237857358,40.84665728521],[-111.979257162154,40.8465220249524],[-111.979259240855,40.846403065337],[-111.979346437625,40.8445990788232],[-111.985494669126,40.8448967322372],[-111.985320789423,40.8470138440225]]},"properties":{"OBJECTID":104,"title":"Line"}},{"type":"Feature","id":105,"geometry":{"type":"LineString","coordinates":[[-111.990287919582,40.8521088865395],[-111.986919057604,40.8560157091085],[-111.984311759475,40.8548402522753],[-111.987754003033,40.850848257266],[-111.99028843252,40.8521082919891]]},"properties":{"OBJECTID":105,"title":"Line"}},{"type":"Feature","id":106,"geometry":{"type":"LineString","coordinates":[[-111.984317146672,40.8548435095973],[-111.979134004027,40.8545683672399],[-111.976395575223,40.8503752230031],[-111.979292917797,40.8468642190209],[-111.985380742985,40.8470184839103],[-111.985341968104,40.8470217572462],[-111.985344132146,40.8470364216806],[-111.987754003033,40.850848257266]]},"properties":{"OBJECTID":106,"title":"Line"}},{"type":"Feature","id":107,"geometry":{"type":"LineString","coordinates":[[-111.959425616175,40.8539107803739],[-111.960036176819,40.8542527997138],[-111.960532646032,40.8543065201638],[-111.961968641642,40.8543529159584],[-111.962962482875,40.854293490769],[-111.96407896211,40.8538328324813],[-111.964721721069,40.8533278645699],[-111.965539910223,40.8520250141187],[-111.965768164052,40.8507046796437],[-111.965499932498,40.849804845665],[-111.965087246457,40.8490041636331],[-111.964463343136,40.8483962933087],[-111.963270744256,40.8477842736313],[-111.963210657743,40.8477737137272],[-111.963169993705,40.8477617750536],[-111.962242003474,40.8475459734237],[-111.962162495385,40.8475367888564],[-111.961555984346,40.8475171911219],[-111.960481292941,40.8475670566081],[-111.960440629801,40.8475551192564],[-111.959891907385,40.8477815439574]]},"properties":{"OBJECTID":107,"title":"Line"}},{"type":"Feature","id":108,"geometry":{"type":"LineString","coordinates":[[-111.957762382732,40.8542373378264],[-111.957704421633,40.8475156091686]]},"properties":{"OBJECTID":108,"title":"Line"}},{"type":"Feature","id":109,"geometry":{"type":"LineString","coordinates":[[-111.957686342139,40.8510552629265],[-111.957417479968,40.851091505923],[-111.957167821981,40.8511251606986],[-111.956815297911,40.851142706647],[-111.951679960011,40.851206332585]]},"properties":{"OBJECTID":109,"title":"Line"}},{"type":"Feature","id":110,"geometry":{"type":"LineString","coordinates":[[-111.951630705384,40.8475550030563],[-111.951603894266,40.8476935148019],[-111.951746280832,40.8542689621248]]},"properties":{"OBJECTID":110,"title":"Line"}}]}