{"type":"FeatureCollection","crs":{"type":"name","properties":{"name":"EPSG:4326"}},"features":[{"type":"Feature","id":1,"geometry":{"type":"LineString","coordinates":[[-111.941552549331,41.1357498731242],[-111.941539787864,41.1289982203762]]},"properties":{"OBJECTID":1,"title":"Line"}},{"type":"Feature","id":2,"geometry":{"type":"LineString","coordinates":[[-111.941546596196,41.1325883737388],[-111.935519899566,41.1325861544858],[-111.935525602071,41.1357475964697]]},"properties":{"OBJECTID":2,"title":"Line"}},{"type":"Feature","id":3,"geometry":{"type":"LineString","coordinates":[[-111.935519926515,41.1325861544858],[-111.935513425407,41.1289960591926]]},"properties":{"OBJECTID":3,"title":"Line"}},{"type":"Feature","id":4,"geometry":{"type":"LineString","coordinates":[[-111.930718918208,41.135790267659],[-111.93057592528,41.1288867799423]]},"properties":{"OBJECTID":4,"title":"Line"}},{"type":"Feature","id":5,"geometry":{"type":"LineString","coordinates":[[-111.922939632714,41.135827593256],[-111.927227109207,41.1357875945368],[-111.927097196647,41.1289297885007]]},"properties":{"OBJECTID":5,"title":"Line"}},{"type":"Feature","id":6,"geometry":{"type":"LineString","coordinates":[[-111.927161639989,41.1323316976822],[-111.923088745864,41.1323697573324]]},"properties":{"OBJECTID":6,"title":"Line"}},{"type":"Feature","id":7,"geometry":{"type":"LineString","coordinates":[[-112.444907834202,41.108847571481],[-112.446270986324,41.1085024655895],[-112.447643017393,41.1077217552306],[-112.448196957225,41.1070716787133],[-112.448568515698,41.1062383935122],[-112.448697926998,41.1055429046349],[-112.448675906595,41.1048857235998],[-112.448451611642,41.1041523352867],[-112.447832722716,41.1032130153119],[-112.44759951378,41.1029152058092],[-112.447093305931,41.1025335839015],[-112.445950407243,41.1020837991052],[-112.444464801274,41.1019246654293],[-112.443737437185,41.101955901788],[-112.442990178108,41.1020941362891],[-112.442535836288,41.1022091530046],[-112.441693896576,41.1025687555314],[-112.44165497527,41.1025707666341],[-112.44099251985,41.1031351448608],[-112.440338924514,41.1043201690859],[-112.440127426062,41.105552163004],[-112.440129314321,41.1057877920542],[-112.440497407991,41.1069563821692],[-112.440842204754,41.1074298555422],[-112.441267711551,41.107857415693],[-112.441713136693,41.1081779491159],[-112.442865092196,41.1086482324932],[-112.444899556227,41.1088661353423]]},"properties":{"OBJECTID":7,"title":"Line"}},{"type":"Feature","id":8,"geometry":{"type":"LineString","coordinates":[[-112.429355054652,41.1002924334939],[-112.428072543395,41.1070851104135],[-112.424539951778,41.1067013636807],[-112.423605717358,41.106321508075],[-112.423601713566,41.1062775167722],[-112.423079931625,41.1057004260174],[-112.423094054938,41.1056407645429],[-112.423088717149,41.105582108181],[-112.423086048254,41.1055527803189],[-112.422971960416,41.1051195524973],[-112.423091580079,41.1044775688536],[-112.423474269577,41.1039729064982],[-112.424210643768,41.1035061724748],[-112.425190109262,41.103283766675],[-112.428719802016,41.1036570644483]]},"properties":{"OBJECTID":8,"title":"Line"}},{"type":"Feature","id":9,"geometry":{"type":"LineString","coordinates":[[-112.426179466105,41.1033884003298],[-112.423688832183,41.0997707796051]]},"properties":{"OBJECTID":9,"title":"Line"}},{"type":"Feature","id":10,"geometry":{"type":"LineString","coordinates":[[-112.412087583463,41.0826976667645],[-112.399456444118,41.0925342775582],[-112.394534666305,41.0793788054453],[-112.412087583463,41.0826976667645]]},"properties":{"OBJECTID":10,"title":"Line"}},{"type":"Feature","id":11,"geometry":{"type":"LineString","coordinates":[[-112.335774326553,41.0900709731883],[-112.364520891752,41.0877297845889]]},"properties":{"OBJECTID":11,"title":"Line"}},{"type":"Feature","id":12,"geometry":{"type":"LineString","coordinates":[[-112.28869857223,41.0939047544548],[-112.313349775541,41.0918972241786]]},"properties":{"OBJECTID":12,"title":"Line"}},{"type":"Feature","id":13,"geometry":{"type":"LineString","coordinates":[[-112.284227757672,41.0917182723852],[-112.272535603039,41.1021921461964],[-112.266410960399,41.0893286902754],[-112.284227757672,41.0917182723852]]},"properties":{"OBJECTID":13,"title":"Line"}},{"type":"Feature","id":14,"geometry":{"type":"LineString","coordinates":[[-112.248023858685,41.0972170636377],[-112.264856212001,41.0958463559404]]},"properties":{"OBJECTID":14,"title":"Line"}},{"type":"Feature","id":15,"geometry":{"type":"LineString","coordinates":[[-112.37816899766,41.0866182216758],[-112.393281403296,41.0853873770924]]},"properties":{"OBJECTID":15,"title":"Line"}},{"type":"Feature","id":16,"geometry":{"type":"LineString","coordinates":[[-112.215401522074,41.09682158015],[-112.203709367441,41.1072946402488],[-112.197584723903,41.0944321836623],[-112.215401522074,41.09682158015]]},"properties":{"OBJECTID":16,"title":"Line"}},{"type":"Feature","id":17,"geometry":{"type":"LineString","coordinates":[[-112.216279841758,41.0998633842378],[-112.234543096337,41.0983148208154]]},"properties":{"OBJECTID":17,"title":"Line"}},{"type":"Feature","id":18,"geometry":{"type":"LineString","coordinates":[[-112.155335760433,41.1047253925282],[-112.18664367134,41.1021761669409]]},"properties":{"OBJECTID":18,"title":"Line"}},{"type":"Feature","id":19,"geometry":{"type":"LineString","coordinates":[[-112.092146130747,41.1101685029693],[-112.122496425884,41.1076472358386]]},"properties":{"OBJECTID":19,"title":"Line"}},{"type":"Feature","id":20,"geometry":{"type":"LineString","coordinates":[[-111.968955746905,41.1258709694473],[-111.966306433672,41.124800089922],[-111.961042536974,41.1248362281059],[-111.958544749767,41.1259191896674],[-111.955254596377,41.1220347327377],[-111.9579541434,41.1208153658142],[-111.96052312389,41.1171526069986],[-111.960456618017,41.1148861626239],[-111.966602254285,41.1148585802836],[-111.966624793914,41.1170368679591],[-111.969331874209,41.1206632620084],[-111.972013145906,41.1218224659498],[-111.968955666056,41.1258708740367]]},"properties":{"OBJECTID":20,"title":"Line"}},{"type":"Feature","id":21,"geometry":{"type":"LineString","coordinates":[[-112.415185573739,41.1057017709755],[-112.419434853866,41.1061338936814],[-112.420635787315,41.0993322294121]]},"properties":{"OBJECTID":21,"title":"Line"}},{"type":"Feature","id":22,"geometry":{"type":"LineString","coordinates":[[-112.420040063246,41.1027062874642],[-112.416003442195,41.1022958305265]]},"properties":{"OBJECTID":22,"title":"Line"}},{"type":"Feature","id":23,"geometry":{"type":"LineString","coordinates":[[-112.413764465909,41.0986322171141],[-112.412496560361,41.1054261636487],[-112.405771728127,41.0977736696546],[-112.404503061705,41.1045674748565]]},"properties":{"OBJECTID":23,"title":"Line"}},{"type":"Feature","id":24,"geometry":{"type":"LineString","coordinates":[[-112.437956554651,41.1012273992917],[-112.436674043395,41.1080199801839],[-112.433141451778,41.1076362382377],[-112.432207216459,41.1072563880402],[-112.432203213566,41.1072123973638],[-112.431681431625,41.1066353148251],[-112.431695554039,41.1065756542],[-112.43169021625,41.1065169993501],[-112.431687547355,41.1064876712286],[-112.431573459517,41.1060544502519],[-112.431693080079,41.105412475071],[-112.432075768678,41.1049078205773],[-112.432812143768,41.1044410925217],[-112.433791609261,41.1042186898882],[-112.437321302015,41.1045919830239]]},"properties":{"OBJECTID":24,"title":"Line"}},{"type":"Feature","id":25,"geometry":{"type":"LineString","coordinates":[[-112.434780966104,41.1043233227302],[-112.432290331284,41.1007057535058]]},"properties":{"OBJECTID":25,"title":"Line"}},{"type":"Feature","id":26,"geometry":{"type":"LineString","coordinates":[[-112.253229340635,41.1129421927648],[-112.251946829378,41.1197335611563],[-112.248414237761,41.1193498883524],[-112.247480002442,41.1189701059256],[-112.247475999549,41.1189261224209],[-112.246954217608,41.1183491428409],[-112.246968340022,41.1182894928599],[-112.246963002233,41.1182308484746],[-112.246960333338,41.1182015262623],[-112.246846245501,41.1177683818997],[-112.246965866062,41.1171265212524],[-112.247348554661,41.116621956792],[-112.248084929751,41.1161553120027],[-112.249064395245,41.1159329497233],[-112.252594087998,41.1163061755855]]},"properties":{"OBJECTID":26,"title":"Line"}},{"type":"Feature","id":27,"geometry":{"type":"LineString","coordinates":[[-112.244602270091,41.1120894045793],[-112.240003923509,41.1186193665509],[-112.236795942611,41.1116817067916]]},"properties":{"OBJECTID":27,"title":"Line"}},{"type":"Feature","id":28,"geometry":{"type":"LineString","coordinates":[[-112.250053752088,41.1160375632218],[-112.247563117267,41.1124206393591]]},"properties":{"OBJECTID":28,"title":"Line"}},{"type":"Feature","id":29,"geometry":{"type":"LineString","coordinates":[[-112.242422392171,41.115185059564],[-112.23826547772,41.1148598506078]]},"properties":{"OBJECTID":29,"title":"Line"}},{"type":"Feature","id":30,"geometry":{"type":"LineString","coordinates":[[-112.235124716856,41.1115010945162],[-112.230526370274,41.118031115007],[-112.227318389377,41.1110933930751]]},"properties":{"OBJECTID":30,"title":"Line"}},{"type":"Feature","id":31,"geometry":{"type":"LineString","coordinates":[[-112.232944838038,41.1145967772422],[-112.228787924485,41.1142715653715]]},"properties":{"OBJECTID":31,"title":"Line"}},{"type":"Feature","id":32,"geometry":{"type":"LineString","coordinates":[[-112.225395177202,41.1109261640716],[-112.222103697898,41.1176260298522],[-112.220295141297,41.1105347760539],[-112.216708114468,41.1171675681456],[-112.216702248469,41.1171089511819],[-112.215198426463,41.1100318827933]]},"properties":{"OBJECTID":32,"title":"Line"}},{"type":"Feature","id":33,"geometry":{"type":"LineString","coordinates":[[-112.21228656891,41.1166280287378],[-112.204774801707,41.1161305421803],[-112.213018901581,41.1100506006379],[-112.205505733006,41.1095529721839]]},"properties":{"OBJECTID":33,"title":"Line"}},{"type":"Feature","id":34,"geometry":{"type":"LineString","coordinates":[[-112.315596328217,41.1161679513763],[-112.319845609243,41.116600005201],[-112.321046541793,41.1097994250614]]},"properties":{"OBJECTID":34,"title":"Line"}},{"type":"Feature","id":35,"geometry":{"type":"LineString","coordinates":[[-112.320450818623,41.1131729453346],[-112.316414197571,41.1127625538201]]},"properties":{"OBJECTID":35,"title":"Line"}},{"type":"Feature","id":36,"geometry":{"type":"LineString","coordinates":[[-112.312831908457,41.1158424704888],[-112.313678196015,41.1112507461503],[-112.31256817926,41.1094791134354],[-112.311160973757,41.1088159194323],[-112.308913558698,41.1085081504514],[-112.307598946145,41.1089659869909],[-112.306370263737,41.1106623053893],[-112.305556913807,41.115075366811]]},"properties":{"OBJECTID":36,"title":"Line"}},{"type":"Feature","id":37,"geometry":{"type":"LineString","coordinates":[[-112.303627289458,41.1151103056782],[-112.304473577015,41.1105185301273],[-112.30336356026,41.1087468776544],[-112.301956354757,41.1080836762552],[-112.299708939698,41.1077759038419],[-112.298394327145,41.1082337454873],[-112.297165644737,41.1099300828037],[-112.296352293909,41.1143431934443]]},"properties":{"OBJECTID":37,"title":"Line"}},{"type":"Feature","id":38,"geometry":{"type":"LineString","coordinates":[[-112.290163204334,41.1140092835267],[-112.291273292056,41.1083245743112],[-112.291405763916,41.1080136894946],[-112.291819280899,41.107734348171],[-112.292292660715,41.1075160212358],[-112.29259442009,41.107441313443],[-112.293026287858,41.1074354937935],[-112.293728818919,41.1075143588675],[-112.294139972435,41.1076147892556],[-112.294699673162,41.1080576512064],[-112.294809070896,41.1082328175223]]},"properties":{"OBJECTID":38,"title":"Line"}},{"type":"Feature","id":39,"geometry":{"type":"LineString","coordinates":[[-112.288214313816,41.1069098672574],[-112.286946408268,41.1137029574551],[-112.280221576034,41.1060514280044],[-112.278952909612,41.112844376902]]},"properties":{"OBJECTID":39,"title":"Line"}},{"type":"Feature","id":40,"geometry":{"type":"LineString","coordinates":[[-112.092250809631,41.0562748952909],[-112.085921429259,41.0568214509608]]},"properties":{"OBJECTID":40,"title":"Line"}},{"type":"Feature","id":41,"geometry":{"type":"LineString","coordinates":[[-112.020569734348,41.031227172894],[-112.092250809631,41.0562748952909]]},"properties":{"OBJECTID":41,"title":"Line"}},{"type":"Feature","id":42,"geometry":{"type":"LineString","coordinates":[[-111.93162455566,41.0649533541559],[-111.928653351807,41.059293208611],[-111.928106584125,41.0464485533611],[-111.928376130812,41.0415632822781],[-111.929388751326,41.0369797092298],[-111.931133352372,41.0327481212618],[-111.933614484813,41.0288894104379],[-111.936734226895,41.0255222712699],[-111.940529136457,41.0226073215086],[-111.944933968859,41.0202021040483],[-111.949900464807,41.0183330288164],[-111.955418649409,41.016976640367],[-111.955652521302,41.016984184197],[-111.961295233064,41.0162792898637],[-111.967194524332,41.0161275737212],[-111.973727042535,41.0165051526618],[-111.981073057992,41.017531363068],[-111.988096395903,41.019092124209],[-111.99520850084,41.0212012160331],[-112.020569734348,41.031227172894]]},"properties":{"OBJECTID":42,"title":"Line"}},{"type":"Feature","id":43,"geometry":{"type":"LineString","coordinates":[[-111.960676441156,41.1057298289472],[-111.93162455566,41.0649533541559]]},"properties":{"OBJECTID":43,"title":"Line"}},{"type":"Feature","id":44,"geometry":{"type":"LineString","coordinates":[[-111.986593575518,41.1398269151212],[-112.017178322859,41.1864827034227]]},"properties":{"OBJECTID":44,"title":"Line"}},{"type":"Feature","id":45,"geometry":{"type":"LineString","coordinates":[[-112.092250809631,41.0562748952909],[-112.090527963985,41.0520228985412]]},"properties":{"OBJECTID":45,"title":"Line"}},{"type":"Feature","id":46,"geometry":{"type":"LineString","coordinates":[[-112.018547451472,41.183573583711],[-112.017178322859,41.1864827034227],[-112.012836885465,41.1847407086842]]},"properties":{"OBJECTID":46,"title":"Line"}}]}